0 OPS 6983 (DMSP 5C F1)
1 07411U 74063A   13282.59850036  .00000270  00000-0  12802-3 0  3837
2 07411 098.6697 093.2586 0041698 232.1832 127.5570 14.26969776 33293
0 OPS 6983 (DMSP 5C F1)
1 07411U 74063A   13283.65027970  .00000246  00000-0  11813-3 0  3843
2 07411 098.6696 094.3011 0041753 229.0747 130.6815 14.26970408 33447
0 OPS 6983 (DMSP 5C F1)
1 07411U 74063A   13285.96419295  .00000252  00000-0  12069-3 0  3867
2 07411 098.6696 096.5947 0041855 222.2456 137.5498 14.26971641 33773
0 OPS 6983 (DMSP 5C F1)
1 07411U 74063A   13287.08608961  .00000280  00000-0  13195-3 0  3875
2 07411 098.6696 097.7068 0041919 218.9233 140.8928 14.26972391 33932
0 OPS 6983 (DMSP 5C F1)
1 07411U 74063A   13288.13786758  .00000383  00000-0  17410-3 0  3882
2 07411 098.6697 098.7492 0041960 215.8549 143.9814 14.26973793 34089
0 OPS 6983 (DMSP 5C F1)
1 07411U 74063A   13289.39999995  .00000294  00000-0  13781-3 0  3899
2 07411 098.6699 100.0003 0042022 212.1418 147.7199 14.26974846 34269
0 OPS 6983 (DMSP 5C F1)
1 07411U 74063A   13290.45177634  .00000327  00000-0  15142-3 0  3908
2 07411 098.6701 101.0428 0042084 209.0363 150.8476 14.26975481 34413
0 OPS 6983 (DMSP 5C F1)
1 07411U 74063A   13291.50355240  .00000313  00000-0  14555-3 0  3919
2 07411 098.6702 102.0853 0042130 205.9893 153.9172 14.26976256 34566
0 OPS 6983 (DMSP 5C F1)
1 07411U 74063A   13292.62544613  .00000372  00000-0  16971-3 0  3927
2 07411 098.6703 103.1973 0042191 202.6891 157.2426 14.26976789 34729
0 OPS 6983 (DMSP 5C F1)
1 07411U 74063A   13294.09793113  .00000368  00000-0  16770-3 0  3934
2 07411 098.6703 104.6570 0042288 198.3571 161.6085 14.26978226 34932
0 OPS 6983 (DMSP 5C F1)
1 07411U 74063A   13295.50029687  .00000402  00000-0  18158-3 0  3941
2 07411 098.6702 106.0470 0042275 194.3806 165.6175 14.26979740 35138
